ONEWEB-0338             
1 49204U 21083U   23277.91538936  .00000032  00000+0  46055-4 0  9996
2 49204  87.9153 110.8209 0002085  73.2758 286.8604 13.20773505106624
ONEWEB-0339             
1 49205U 21083V   23277.93159882 -.00000249  00000+0 -71599-3 0  9990
2 49205  87.9049 156.4697 0001613  71.1822 288.9482 13.13469365101429
ONEWEB-0340             
1 49206U 21083W   23277.73917514  .00000356  00000+0  87001-3 0  9995
2 49206  87.9220 171.6680 0001571  78.3648 281.7660 13.18684218 99965
ONEWEB-0341             
1 49207U 21083X   23277.74758997  .00000116  00000+0  26270-3 0  9990
2 49207  87.9301 171.6302 0001421  47.6930 312.4322 13.18688233 99984
ONEWEB-0342             
1 49208U 21083Y   23277.92170410  .00000043  00000+0  73403-4 0  9999
2 49208  87.9146 110.8513 0001941  79.6590 280.4762 13.20773316106593
ONEWEB-0343             
1 49209U 21083Z   23277.97100902 -.00000080  00000+0 -23545-3 0  9998
2 49209  87.9288 171.6163 0001721  38.1738 321.9515 13.18687098100068
ONEWEB-0344             
1 49210U 21083AA  23277.89669494  .00000292  00000+0  76531-3 0  9993
2 49210  87.9052 156.4830 0001528  82.1921 277.9381 13.13468277101422
ONEWEB-0345             
1 49211U 21083AB  23277.91465442 -.00000187  00000+0 -54696-3 0  9997
2 49211  87.9052 156.4653 0000981  73.2181 286.9056 13.13468168101436
